STARLINK-11102 [DTC]    
1 60065U 24113G   24192.58246642  .00108360  00000+0  65701-3 0  9992
2 60065  53.1667 305.1211 0001067  69.7597 290.3539 15.76751182  4386
STARLINK-11141 [DTC]    
1 60066U 24113H   24192.91668981 -.00013130  00000+0 -76326-4 0  9992
2 60066  53.1666 303.3997 0001030 130.6401 355.3699 15.76735013  4552
STARLINK-11153 [DTC]    
1 60067U 24113J   24192.91668981  .00099007  00000+0  59988-3 0  9992
2 60067  53.1666 303.3436 0001290  29.2554 123.9780 15.76804759  4555
STARLINK-11170 [DTC]    
1 60068U 24113K   24192.58334491 -.00053363  00000+0 -32391-3 0  9998
2 60068  53.1668 304.9463 0001837   5.9101  82.3767 15.76738649  4592
STARLINK-11171 [DTC]    
1 60069U 24113L   24192.91668981 -.00176428  00000+0 -10907-2 0  9996
2 60069  53.1658 303.2286 0000705  26.2776 182.9102 15.76847915  4557
STARLINK-11186 [DTC]    
1 60070U 24113M   24192.68726099  .00142517  00000+0  70149-3 0  9992
2 60070  53.1668 304.3422 0000960 113.4580 246.6544 15.81249023  4627
STARLINK-11184 [DTC]    
1 60071U 24113N   24192.68573923 -.00061232  00000+0 -30716-3 0  9991
2 60071  53.1673 304.3317 0000851 120.9652 239.1454 15.80994722  4460
STARLINK-32111          
1 60073U 24113Q   24192.26301944  .01779620  11894-4  71436-3 0  9997
2 60073  53.1598 303.5193 0014411 331.2510 111.8716 16.22562009  4180
STARLINK-32115          
1 60074U 24113R   24191.89007236  .01616863  11872-4  68646-3 0  9997
2 60074  53.1609 305.4224 0015643 327.2067 134.1931 16.21825112  4127
STARLINK-32117          
1 60076U 24113T   24192.32166916  .01312051  11825-4  63569-3 0  9998
2 60076  53.1595 303.2701 0015814 331.9985  60.3778 16.20175694  4198
STARLINK-32032          
1 60077U 24113U   24192.50001157 -.00036022  00000+0 -89408-3 0  9994
2 60077  53.1596 307.0956 0000671  74.7587 114.9628 15.39645837  4559
STARLINK-32110          
1 60078U 24113V   24192.60880611  .03199933  12145-4  59651-3 0  9993
2 60078  53.1529 301.3623 0014973 323.4744 125.4847 16.31039549  4249
KINEIS-1B               
1 60079U 24114A   24192.76398428  .00002502  00000+0  35644-3 0  9992
2 60079  98.0284 208.4570 0002179 183.1648 176.9549 14.77699898  2956
KINEIS-1C               
1 60081U 24114C   24192.83974497  .00002377  00000+0  34369-3 0  9992
2 60081  98.0285 208.5131 0000904  67.1801 292.9504 14.77103868  2957
KINEIS-1D               
1 60082U 24114D   24192.49993504  .00002225  00000+0  32167-3 0  9991
2 60082  98.0285 208.1779 0000416  58.8758 301.2493 14.77182724  2902
KINEIS-1E               
1 60083U 24114E   24192.49878905  .00002472  00000+0  35574-3 0  9998
2 60083  98.0284 208.1797 0001276 122.6351 237.4982 14.77271097  2901
KINEIS-1A               
1 60084U 24114F   24191.34346515  .00002109  00000+0  30247-3 0  9998
2 60084  98.0283 207.0384 0001306 208.6810 151.4328 14.77574422  2738
ELECTRON KICK STAGE R/B 
1 60085U 24114G   24192.48896021  .00006495  00000+0  50328-3 0  9991
2 60085  98.0270 208.8340 0091335 329.3523  30.2381 14.98499202  2940
ASTRA 1P                
1 60086U 24115A   24190.86943325 -.00000182  00000+0  00000+0 0  9999
2 60086  23.7148  61.0918 7708659 183.4186 163.1419  1.26732004    94
FALCON 9 R/B            
1 60087U 24115B   24192.75164191  .00000335  00000+0  13791-2 0  9999
2 60087  28.0379  60.4384 7977202 184.6708 155.1980  1.43355839   296
CATCH-1                 
1 60088U 24116A   24192.55242160  .00001935  00000+0  23528-3 0  9999
2 60088  28.9946 252.7109 0004748  60.4361 299.6704 14.79891327  2674
SVOM                    
1 60089U 24116B   24192.55550232  .00001870  00000+0  22821-3 0  9995
2 60089  28.9947 252.7361 0005796  47.9756 312.1329 14.79632376  2679
CZ-2C R/B               
1 60090U 24116C   24192.53055285  .00532791 -74980-5  80215-3 0  9990
2 60090  28.0430 236.0373 0235624 234.7900 123.0425 15.68407334  2768
STARLINK-31441          
1 60091U 24117A   24192.58334491 -.00687678  00000+0 -38153-2 0  9991
2 60091  53.1481 342.4132 0000946  79.3661 187.2371 15.80594339  3638
STARLINK-32044          
1 60092U 24117B   24192.58334491 -.00693116  00000+0 -38515-2 0  9998
2 60092  53.1479 342.4079 0000787  69.9590 199.3947 15.80575308  3688
STARLINK-31239          
1 60093U 24117C   24192.58334491 -.00698476  00000+0 -38882-2 0  9990
2 60093  53.1476 342.4008 0000786  67.3267 204.9311 15.80550412  3834
STARLINK-32007          
1 60094U 24117D   24192.91668981 -.00655374  00000+0 -37192-2 0  9995
2 60094  53.1474 340.7280 0000804  53.8817 318.6987 15.80023971  3712
STARLINK-32028          
1 60095U 24117E   24192.91668981 -.00658098  00000+0 -37366-2 0  9995
2 60095  53.1474 340.7228 0001137  53.0237 321.8311 15.80017321  3880
STARLINK-32016          
1 60096U 24117F   24192.58334491 -.00711720  00000+0 -39789-2 0  9998
2 60096  53.1480 342.3847 0000968  79.3649 201.0775 15.80490255  3831
STARLINK-32003          
1 60097U 24117G   24192.91668981 -.00668763  00000+0 -38149-2 0  9997
2 60097  53.1475 340.7105 0001127  52.9150 327.9799 15.79943203  3880
STARLINK-32026          
1 60098U 24117H   24192.58334491 -.00726730  00000+0 -40851-2 0  9999
2 60098  53.1481 342.3667 0000772  58.6057 230.3968 15.80411418  3631
STARLINK-31732          
1 60099U 24117J   24192.58334491 -.00723741  00000+0 -40626-2 0  9999
2 60099  53.1482 342.3728 0001048  77.0630 209.2757 15.80432135  3832
STARLINK-31996          
1 60100U 24117K   24192.91668981 -.00680974  00000+0 -39040-2 0  9991
2 60100  53.1475 340.6940 0000749  51.8054 337.1257 15.79868354  3763
STARLINK-31999          
1 60101U 24117L   24192.91668981 -.00684704  00000+0 -39307-2 0  9993
2 60101  53.1475 340.6888 0000902  53.4260 338.0660 15.79847371  3868
STARLINK-31954          
1 60102U 24117M   24192.91668981 -.00691782  00000+0 -39824-2 0  9992
2 60102  53.1477 340.6825 0000697  56.3809 338.1431 15.79806277  3669
STARLINK-32013          
1 60103U 24117N   24192.91668981 -.00693664  00000+0 -39970-2 0  9996
2 60103  53.1480 340.6781 0000754  50.5816 346.3555 15.79790199  3868
STARLINK-32009          
1 60104U 24117P   24192.58334491 -.00791048  00000+0 -38424-2 0  9994
2 60104  53.1473 341.9892 0000974  60.4890  51.0185 15.83674321  3901
STARLINK-32018          
1 60105U 24117Q   24192.91668981 -.00708861  00000+0 -41116-2 0  9999
2 60105  53.1478 340.6603 0000855  53.4288 351.9831 15.79684697  3939
STARLINK-32045          
1 60106U 24117R   24192.91668981 -.00705077  00000+0 -40807-2 0  9992
2 60106  53.1479 340.6669 0001084  53.7006 348.8894 15.79721120  3712
STARLINK-32035          
1 60107U 24117S   24192.58334491 -.00769543  00000+0 -43918-2 0  9996
2 60107  53.1485 342.3217 0001017  80.4749 230.9419 15.80190539  3838
STARLINK-32042          
1 60108U 24117T   24192.91668981 -.00723195  00000+0 -42210-2 0  9995
2 60108  53.1479 340.6434 0001049  49.5737   4.0601 15.79584008  3820
STARLINK-32040          
1 60109U 24117U   24192.58334491 -.00773571  00000+0 -44199-2 0  9996
2 60109  53.1486 342.3174 0001030  80.9165 232.9375 15.80175659  3834
STARLINK-32001          
1 60110U 24117V   24192.58334491 -.00784603  00000+0 -45044-2 0  9996
2 60110  53.1486 342.3045 0000972  82.6623 237.0480 15.80100747  3834
STARLINK-32015          
1 60111U 24117W   24192.58334491 -.00789821  00000+0 -45425-2 0  9997
2 60111  53.1483 342.2987 0001109  73.7547 248.6181 15.80074072  3731
STARLINK-32024          
1 60112U 24117X   24192.58334491 -.00793657  00000+0 -45705-2 0  9991
2 60112  53.1482 342.2933 0001029  71.3509 253.4753 15.80056356  3830
STARLINK-11201 [DTC]    
1 60113U 24118A   24192.78528718  .00124451  00000+0  75257-3 0  9996
2 60113  53.1685 335.9219 0000939  49.5713 310.5390 15.76750807  3520
STARLINK-11198 [DTC]    
1 60114U 24118B   24192.78323958  .00208865  00000+0  12443-2 0  9995
2 60114  53.1686 335.9066 0001096  40.6111 319.4991 15.76815035  3510
STARLINK-11112 [DTC]    
1 60115U 24118C   24192.78021258  .00112748  00000+0  68245-3 0  9990
2 60115  53.1683 335.8868 0001053  30.5002 329.6080 15.76772774  3735
STARLINK-11210 [DTC]    
1 60116U 24118D   24192.83867706  .00119793  00000+0  72464-3 0  9998
2 60116  53.1677 335.5378 0001125 198.8888 161.2092 15.76760477  3529
STARLINK-11203 [DTC]    
1 60117U 24118E   24192.83334491  .00138968  00000+0  84620-3 0  9991
2 60117  53.1670 335.5126 0001615  20.6258 335.6575 15.76542111  3684
STARLINK-11177 [DTC]    
1 60118U 24118F   24192.83334491 -.00014549  00000+0 -85353-4 0  9997
2 60118  53.1673 335.4527 0001108  67.5771 317.9897 15.76648492  3699
STARLINK-11127 [DTC]    
1 60119U 24118G   24192.83334491 -.00015698  00000+0 -92443-4 0  9992
2 60119  53.1677 335.3955 0000966  80.2298 333.0261 15.76644478  3521
STARLINK-11164 [DTC]    
1 60120U 24118H   24192.83334491 -.00002294  00000+0 -10036-4 0  9990
2 60120  53.1679 335.3385 0000672  32.5183  48.2531 15.76713704  3758
STARLINK-11119 [DTC]    
1 60121U 24118J   24192.58334491 -.01363278  00000+0 -81262-2 0  9993
2 60121  53.1671 336.4794 0000373 102.4854  48.2572 15.79812581  3668
STARLINK-11157 [DTC]    
1 60122U 24118K   24192.83334491  .00023578  00000+0  14776-3 0  9992
2 60122  53.1676 335.2809 0001094  67.1851  41.3005 15.76712992  3424
STARLINK-11162 [DTC]    
1 60123U 24118L   24192.80707140 -.00582087  00000+0 -29479-2 0  9997
2 60123  53.1672 335.3254 0002040  91.3804 268.7453 15.82277723  3365
STARLINK-11161 [DTC]    
1 60124U 24118M   24192.80556163  .00412648  00000+0  17340-2 0  9992
2 60124  53.1668 335.3156 0001100 136.1864 223.9248 15.83890513  3681
STARLINK-11160 [DTC]    
1 60125U 24118N   24192.80430238  .00353146  00000+0  14962-2 0  9991
2 60125  53.1670 335.3066 0000809 137.1689 222.9398 15.83868884  3744
